GLOBALSTAR M035         
1 25851U 99037A   26019.96231056 -.00000048  00000+0  58259-3 0  9993
2 25851  51.9968 291.5371 0013792 337.1451 106.4389 11.04541707120212
GLOBALSTAR M032         
1 25852U 99037B   26019.67283317 -.00000198  00000+0 -42156-2 0  9994
2 25852  51.9960 102.4421 0013139 170.2789 189.8267 11.19071231159023
GLOBALSTAR M051         
1 25853U 99037C   26019.91109149 -.00000062  00000+0  23942-3 0  9994
2 25853  51.9767 238.0731 0001097  75.9200 284.1732 11.42199666157155
GLOBALSTAR M030         
1 25854U 99037D   26019.76585758 -.00000125  00000+0 -10579-2 0  9994
2 25854  51.9899  30.7517 0003462  73.5422 286.5775 11.55110506175073
GLOBALSTAR M048         
1 25872U 99041A   26019.70601551 -.00000092  00000+0 -60369-3 0  9999
2 25872  51.9336 181.9691 0013110 194.0004 179.3316 11.33861871149544
GLOBALSTAR M026         
1 25873U 99041B   26019.82990531 -.00000105  00000+0 -14936-2 0  9995
2 25873  52.0026  47.5004 0001742 262.8636 267.9356 11.06842677172470
GLOBALSTAR M043         
1 25874U 99041C   26019.93824004 -.00000094  00000+0 -77458-3 0  9995
2 25874  51.9419 297.7009 0013533 324.2138 127.5651 11.25695998147283
GLOBALSTAR M028         
1 25875U 99041D   26019.98631357 -.00000038  00000+0  40291-3 0  9990
2 25875  51.9620 266.6029 0062959 181.6317 178.4347 12.50594601217301
